OBJECT_NAME,OBJECT_ID,EPOCH,MEAN_MOTION,ECCENTRICITY,INCLINATION,RA_OF_ASC_NODE,ARG_OF_PERICENTER,MEAN_ANOMALY,EPHEMERIS_TYPE,CLASSIFICATION_TYPE,NORAD_CAT_ID,ELEMENT_SET_NO,REV_AT_EPOCH,BSTAR,MEAN_MOTION_DOT,MEAN_MOTION_DDOT
INTELSAT 23 (IS-23),2012-057A,2026-07-11T11:35:45.575232,1.00274259,.0000218,0.0154,27.0451,162.2022,221.0640,0,U,38867,999,5019,0,-.279E-5,0
FM-6,2013-058A,2026-07-11T11:17:39.808896,1.00270007,.0001314,0.0159,48.4433,129.4271,164.5647,0,U,39360,999,4631,0,-.1E-6,0
INTELSAT 30 (IS-30),2014-062A,2026-07-11T11:23:46.722912,1.00266396,.0001545,0.0169,47.6034,324.6641,353.0107,0,U,40271,999,703,0,-.144E-5,0
DIRECTV 14,2014-078B,2026-07-11T11:22:31.841760,1.00270012,.0000268,0.0106,36.3594,275.9248,48.4871,0,U,40333,999,4228,0,-.119E-5,0
DIRECTV 15,2015-026A,2026-07-11T09:21:26.362080,1.00271076,.0000191,0.0189,71.7940,175.2336,79.7574,0,U,40663,999,4070,0,-.96E-6,0
SKY MEXICO-1,2015-026B,2026-07-11T11:28:23.780064,1.00271043,.0002305,0.0063,54.9721,79.5804,248.1342,0,U,40664,999,4069,0,-.228E-5,0
INTELSAT 34 (IS-34),2015-039A,2026-07-11T11:35:00.647232,1.00274184,.0000254,0.0100,359.1933,351.6992,56.7606,0,U,40874,999,3987,0,-.28E-5,0
INTELSAT 31 (IS-31),2016-035A,2026-07-11T11:23:46.722912,1.00266396,.0001322,0.0198,281.6340,8.3188,75.3229,0,U,41581,999,3692,0,-.144E-5,0
INTELSAT 36 (IS-36),2016-053A,2026-07-11T12:14:38.597280,1.00269566,.0002514,0.0105,355.6291,345.6309,200.3095,0,U,41747,999,3620,0,-.18E-6,0
INTELSAT 32E (IS-32E),2017-007B,2026-07-10T03:08:08.520288,1.00267562,.00003413,0.0258,33.0821,235.9737,22.8541,0,U,41945,999,3445,0,0,0
INTELSAT 35E (IS-35E),2017-041A,2026-07-11T10:50:00.749184,1.00270211,.0001597,0.0186,35.2922,74.0721,308.0046,0,U,42818,999,3305,0,-.232E-5,0
INTELSAT 37E (IS-37E),2017-059A,2026-07-11T10:03:03.544128,1.00270619,.0002493,0.0155,54.3841,63.4317,304.2755,0,U,42950,999,3230,0,-.135E-5,0
AZERSPACE 2 (IS-38),2018-074A,2026-07-11T05:13:02.870976,1.00270656,.0001235,0.0273,38.7820,92.2329,281.4917,0,U,43632,999,2868,0,0,0
HORIZONS-3E,2018-074B,2026-07-11T10:56:22.197408,1.00269733,.0000925,0.0403,220.7856,54.1940,347.4770,0,U,43633,999,2858,0,-.25E-6,0
AT&T T-16,2019-034A,2026-07-11T11:22:01.891200,1.00268453,.0000958,0.0134,58.2588,271.4646,29.3095,0,U,44333,999,2587,0,-.109E-5,0
INTELSAT 39 (IS-39),2019-049B,2026-07-11T10:25:53.855040,1.00270150,.0000889,0.0278,39.2819,281.8876,186.5962,0,U,44476,999,2537,0,0,0
GALAXY 30 (G-30),2020-056C,2026-07-11T11:15:38.693376,1.00270594,.0001931,0.0294,43.0423,72.4465,217.7972,0,U,46114,999,2153,0,0,0
GALAXY 33 (G-33),2022-128A,2026-07-11T11:23:38.603040,1.00270878,.0001773,0.0140,26.5296,92.1598,208.6012,0,U,54026,999,1398,0,.85E-6,0
GALAXY 34 (G-34),2022-128B,2026-07-11T00:58:08.412960,1.00269972,.0001349,0.0112,37.5715,92.1383,44.7761,0,U,54027,999,1415,0,.67E-6,0
GALAXY 31 (G-31),2022-153A,2026-07-11T11:16:17.441184,1.00270038,.000092,0.0233,53.1021,65.2373,219.1043,0,U,54243,999,737,0,0,0
GALAXY 32 (G-32),2022-153B,2026-07-11T06:16:55.034112,1.00271069,.0001457,0.0115,41.9388,4.2849,246.1793,0,U,54244,999,1338,0,-.167E-5,0
GALAXY 35 (G-35),2022-170A,2026-07-11T11:24:16.676064,1.00269383,.0001862,0.0200,45.0334,71.0414,251.2751,0,U,54741,999,1313,0,0,0
GALAXY 36 (G-36),2022-170B,2026-07-11T11:25:31.556352,1.00271220,.0002373,0.0278,112.8696,346.7440,272.1537,0,U,54742,999,1301,0,-.179E-5,0
GALAXY 37 (G-37),2023-112A,2026-07-11T11:15:38.693376,1.00270621,.0001755,0.0143,65.5454,49.9738,215.7641,0,U,57493,999,1078,0,.54E-6,0
